{
  "type": "FeatureCollection",
  "features": [
    {
      "type": "Feature",
      "properties": {
        "norad_id": 19071,
        "name": "OSCAR 32",
        "group": "nnss",
        "lat": 10.311488538278327,
        "lon": 16.638660534437445,
        "alt_km": 1265.351719925955,
        "timestamp": "2025-12-18T07:01:54.858247+00:00",
        "meta_object_name": "OSCAR 32",
        "meta_object_id": "1988-033B",
        "meta_epoch": "2025-12-17T15:17:38.406048",
        "meta_mean_motion": 13.27954687,
        "meta_eccentricity": 0.0188728,
        "meta_inclination": 90.3213,
        "meta_ra_of_asc_node": 16.6767,
        "meta_arg_of_pericenter": 153.2139,
        "meta_mean_anomaly": 325.5255,
        "meta_ephemeris_type": 0,
        "meta_classification_type": "U",
        "meta_norad_cat_id": 19071,
        "meta_element_set_no": 999,
        "meta_rev_at_epoch": 82330,
        "meta_bstar": 0.00017613289,
        "meta_mean_motion_dot": 9.7e-07,
        "meta_mean_motion_ddot": 0,
        "tle_line1": "1 19071U 88033B   25351.63725007  .00000097  00000+0  17613-3 0  9992",
        "tle_line2": "2 19071  90.3213  16.6767 0188728 153.2139 325.5255 13.27954687823304"
      },
      "geometry": {
        "type": "Point",
        "coordinates": [
          16.638660534437445,
          10.311488538278327
        ]
      }
    },
    {
      "type": "Feature",
      "properties": {
        "norad_id": 19223,
        "name": "NOVA 2",
        "group": "nnss",
        "lat": 70.78834146650064,
        "lon": -101.77110376313718,
        "alt_km": 1173.56967141707,
        "timestamp": "2025-12-18T07:01:54.858258+00:00",
        "meta_object_name": "NOVA 2",
        "meta_object_id": "1988-052A",
        "meta_epoch": "2025-12-17T18:21:27.622656",
        "meta_mean_motion": 13.2293631,
        "meta_eccentricity": 0.0030158,
        "meta_inclination": 89.9872,
        "meta_ra_of_asc_node": 78.2663,
        "meta_arg_of_pericenter": 3.1219,
        "meta_mean_anomaly": 112.1018,
        "meta_ephemeris_type": 0,
        "meta_classification_type": "U",
        "meta_norad_cat_id": 19223,
        "meta_element_set_no": 999,
        "meta_rev_at_epoch": 81014,
        "meta_bstar": 0.00012786655,
        "meta_mean_motion_dot": 6.2e-07,
        "meta_mean_motion_ddot": 0,
        "tle_line1": "1 19223U 88052A   25351.76490304  .00000062  00000+0  12787-3 0  9994",
        "tle_line2": "2 19223  89.9872  78.2663 0030158   3.1219 112.1018 13.22936310810145"
      },
      "geometry": {
        "type": "Point",
        "coordinates": [
          -101.77110376313718,
          70.78834146650064
        ]
      }
    },
    {
      "type": "Feature",
      "properties": {
        "norad_id": 19419,
        "name": "OSCAR 25",
        "group": "nnss",
        "lat": -37.967272868575925,
        "lon": -159.76432515330615,
        "alt_km": 1036.621782414256,
        "timestamp": "2025-12-18T07:01:54.858268+00:00",
        "meta_object_name": "OSCAR 25",
        "meta_object_id": "1988-074A",
        "meta_epoch": "2025-12-17T20:05:06.175392",
        "meta_mean_motion": 13.42624299,
        "meta_eccentricity": 0.00946987,
        "meta_inclination": 90.0343,
        "meta_ra_of_asc_node": 20.2609,
        "meta_arg_of_pericenter": 231.0727,
        "meta_mean_anomaly": 303.695,
        "meta_ephemeris_type": 0,
        "meta_classification_type": "U",
        "meta_norad_cat_id": 19419,
        "meta_element_set_no": 999,
        "meta_rev_at_epoch": 82708,
        "meta_bstar": 0.00016914912,
        "meta_mean_motion_dot": 1.07e-06,
        "meta_mean_motion_ddot": 0,
        "tle_line1": "1 19419U 88074A   25351.83687703  .00000107  00000+0  16915-3 0  9991",
        "tle_line2": "2 19419  90.0343  20.2609 0094698 231.0727 303.6950 13.42624299827085"
      },
      "geometry": {
        "type": "Point",
        "coordinates": [
          -159.76432515330615,
          -37.967272868575925
        ]
      }
    },
    {
      "type": "Feature",
      "properties": {
        "norad_id": 19420,
        "name": "OSCAR 31",
        "group": "nnss",
        "lat": 79.78273625403119,
        "lon": -159.18791785510615,
        "alt_km": 1130.5683635798714,
        "timestamp": "2025-12-18T07:01:54.858278+00:00",
        "meta_object_name": "OSCAR 31",
        "meta_object_id": "1988-074B",
        "meta_epoch": "2025-12-17T20:39:40.913280",
        "meta_mean_motion": 13.42585441,
        "meta_eccentricity": 0.00930517,
        "meta_inclination": 90.0358,
        "meta_ra_of_asc_node": 20.6118,
        "meta_arg_of_pericenter": 225.14,
        "meta_mean_anomaly": 308.6821,
        "meta_ephemeris_type": 0,
        "meta_classification_type": "U",
        "meta_norad_cat_id": 19420,
        "meta_element_set_no": 999,
        "meta_rev_at_epoch": 82719,
        "meta_bstar": 0.00015113076,
        "meta_mean_motion_dot": 9.6e-07,
        "meta_mean_motion_ddot": 0,
        "tle_line1": "1 19420U 88074B   25351.86089020  .00000096  00000+0  15113-3 0  9990",
        "tle_line2": "2 19420  90.0358  20.6118 0093051 225.1400 308.6821 13.42585441827195"
      },
      "geometry": {
        "type": "Point",
        "coordinates": [
          -159.18791785510615,
          79.78273625403119
        ]
      }
    }
  ]
}